COSMOS 2251 DEB         
1 37280U 93036BHU 26112.93816441  .00001875  00000+0  81707-3 0  9995
2 37280  74.0296 182.3712 0133156 278.8502  79.7585 14.20053133591856
COSMOS 2251 DEB         
1 37284U 93036BHY 26116.20873132  .00001319  00000+0  62900-3 0  9990
2 37284  74.0149 278.5337 0163249  39.9877 137.8345 14.13434754610749
COSMOS 2251 DEB         
1 37292U 93036BJG 26106.56066247  .00002245  00000+0  11759-2 0  9992
2 37292  74.1279 193.4201 0208004 165.6335 195.0844 14.04321833616001
COSMOS 2251 DEB         
1 37295U 93036BJK 26117.14309577  .00002475  00000+0  44917-3 0  9995
2 37295  74.0072  20.3956 0045715 166.8052 193.4325 14.66123431842881
COSMOS 2251 DEB         
1 37305U 93036BJV 26116.53300441  .00001695  00000+0  57760-3 0  9993
2 37305  73.8703  40.3681 0046949 331.8556  28.0059 14.36660114688023
COSMOS 2251 DEB         
1 37312U 93036BKC 26116.21778789  .00001295  00000+0  36550-3 0  9990
2 37312  74.0307 313.0516 0017335  26.2964 333.9071 14.46621525881083
COSMOS 2251 DEB         
1 37316U 93036BKG 26115.72704542  .00030986  00000+0  22453-2 0  9990
2 37316  74.0151 108.8197 0025889 162.7813 197.4260 15.03555118881510
COSMOS 2251 DEB         
1 37320U 93036BKL 26115.82139460  .00004705  00000+0  60507-3 0  9990
2 37320  74.0462 314.2779 0043769   7.5352 352.6472 14.80755273681303
COSMOS 2251 DEB         
1 37326U 93036BKS 26116.59834024  .00002112  00000+0  41478-3 0  9995
2 37326  74.0219  76.3433 0056822 172.5215 187.6814 14.62312959874543
COSMOS 2251 DEB         
1 37330U 93036BKW 26116.04965379  .00001026  00000+0  21528-3 0  9995
2 37330  74.0188  38.5953 0058669 213.0266 146.7231 14.59963060883289
COSMOS 2251 DEB         
1 37331U 93036BKX 26115.45856766  .00001051  00000+0  36761-3 0  9992
2 37331  74.0738 183.2289 0055822 166.1722 194.0976 14.35509112866780
COSMOS 2251 DEB         
1 37336U 93036BLC 26116.18324435  .00000151  00000+0  64352-4 0  9999
2 37336  74.0398  85.7620 0029048 134.2323 226.1221 14.32817733670451
COSMOS 2251 DEB         
1 37340U 93036BLG 26116.02461543  .00000405  00000+0  14492-3 0  9990
2 37340  74.0270  30.0691 0017288  98.5683 261.7430 14.37082784859967
COSMOS 2251 DEB         
1 37483U 93036BLL 26117.11423382  .00000612  00000+0  17860-3 0  9990
2 37483  73.9737 250.7082 0091737  66.3472 294.7281 14.43802163672338
COSMOS 2251 DEB         
1 37486U 93036BLP 26117.04287444  .00004180  00000+0  17043-2 0  9998
2 37486  73.6895 229.6145 0224959  77.6847  99.2063 14.14909749652827
COSMOS 2251 DEB         
1 37487U 93036BLQ 26117.17825203  .00035219  00000+0  36657-2 0  9993
2 37487  73.8961 280.8047 0029340  88.4522 272.0019 14.89356283832565
