[{"OBJECT_NAME":"COSMOS 2251 DEB","OBJECT_ID":"1993-036BHU","EPOCH":"2026-04-22T22:30:57.405024","MEAN_MOTION":14.20053133,"ECCENTRICITY":0.0133156,"INCLINATION":74.0296,"RA_OF_ASC_NODE":182.3712,"ARG_OF_PERICENTER":278.8502,"MEAN_ANOMALY":79.7585,"EPHEMERIS_TYPE":0,"CLASSIFICATION_TYPE":"U","NORAD_CAT_ID":37280,"ELEMENT_SET_NO":999,"REV_AT_EPOCH":59185,"BSTAR":0.00081707,"MEAN_MOTION_DOT":1.875e-5,"MEAN_MOTION_DDOT":0},{"OBJECT_NAME":"COSMOS 2251 DEB","OBJECT_ID":"1993-036BHY","EPOCH":"2026-04-26T05:00:34.386048","MEAN_MOTION":14.13434754,"ECCENTRICITY":0.01632493,"INCLINATION":74.0149,"RA_OF_ASC_NODE":278.5337,"ARG_OF_PERICENTER":39.9877,"MEAN_ANOMALY":137.8345,"EPHEMERIS_TYPE":0,"CLASSIFICATION_TYPE":"U","NORAD_CAT_ID":37284,"ELEMENT_SET_NO":999,"REV_AT_EPOCH":61074,"BSTAR":0.00062900318,"MEAN_MOTION_DOT":1.319e-5,"MEAN_MOTION_DDOT":0},{"OBJECT_NAME":"COSMOS 2251 DEB","OBJECT_ID":"1993-036BJG","EPOCH":"2026-04-16T13:27:21.237408","MEAN_MOTION":14.04321833,"ECCENTRICITY":0.0208004,"INCLINATION":74.1279,"RA_OF_ASC_NODE":193.4201,"ARG_OF_PERICENTER":165.6335,"MEAN_ANOMALY":195.0844,"EPHEMERIS_TYPE":0,"CLASSIFICATION_TYPE":"U","NORAD_CAT_ID":37292,"ELEMENT_SET_NO":999,"REV_AT_EPOCH":61600,"BSTAR":0.0011759049,"MEAN_MOTION_DOT":2.245e-5,"MEAN_MOTION_DDOT":0},{"OBJECT_NAME":"COSMOS 2251 DEB","OBJECT_ID":"1993-036BJK","EPOCH":"2026-04-27T03:26:03.474528","MEAN_MOTION":14.66123431,"ECCENTRICITY":0.00457153,"INCLINATION":74.0072,"RA_OF_ASC_NODE":20.3956,"ARG_OF_PERICENTER":166.8052,"MEAN_ANOMALY":193.4325,"EPHEMERIS_TYPE":0,"CLASSIFICATION_TYPE":"U","NORAD_CAT_ID":37295,"ELEMENT_SET_NO":999,"REV_AT_EPOCH":84288,"BSTAR":0.00044917137,"MEAN_MOTION_DOT":2.475e-5,"MEAN_MOTION_DDOT":0},{"OBJECT_NAME":"COSMOS 2251 DEB","OBJECT_ID":"1993-036BJV","EPOCH":"2026-04-26T12:47:31.581024","MEAN_MOTION":14.36660114,"ECCENTRICITY":0.0046949,"INCLINATION":73.8703,"RA_OF_ASC_NODE":40.3681,"ARG_OF_PERICENTER":331.8556,"MEAN_ANOMALY":28.0059,"EPHEMERIS_TYPE":0,"CLASSIFICATION_TYPE":"U","NORAD_CAT_ID":37305,"ELEMENT_SET_NO":999,"REV_AT_EPOCH":68802,"BSTAR":0.0005776,"MEAN_MOTION_DOT":1.695e-5,"MEAN_MOTION_DDOT":0},{"OBJECT_NAME":"COSMOS 2251 DEB","OBJECT_ID":"1993-036BKC","EPOCH":"2026-04-26T05:13:36.873696","MEAN_MOTION":14.46621525,"ECCENTRICITY":0.00173353,"INCLINATION":74.0307,"RA_OF_ASC_NODE":313.0516,"ARG_OF_PERICENTER":26.2964,"MEAN_ANOMALY":333.9071,"EPHEMERIS_TYPE":0,"CLASSIFICATION_TYPE":"U","NORAD_CAT_ID":37312,"ELEMENT_SET_NO":999,"REV_AT_EPOCH":88108,"BSTAR":0.000365503,"MEAN_MOTION_DOT":1.295e-5,"MEAN_MOTION_DDOT":0},{"OBJECT_NAME":"COSMOS 2251 DEB","OBJECT_ID":"1993-036BKG","EPOCH":"2026-04-25T17:26:56.724288","MEAN_MOTION":15.03555118,"ECCENTRICITY":0.00258896,"INCLINATION":74.0151,"RA_OF_ASC_NODE":108.8197,"ARG_OF_PERICENTER":162.7813,"MEAN_ANOMALY":197.426,"EPHEMERIS_TYPE":0,"CLASSIFICATION_TYPE":"U","NORAD_CAT_ID":37316,"ELEMENT_SET_NO":999,"REV_AT_EPOCH":88151,"BSTAR":0.002245255,"MEAN_MOTION_DOT":0.00030986,"MEAN_MOTION_DDOT":0},{"OBJECT_NAME":"COSMOS 2251 DEB","OBJECT_ID":"1993-036BKL","EPOCH":"2026-04-25T19:42:48.493440","MEAN_MOTION":14.80755273,"ECCENTRICITY":0.00437691,"INCLINATION":74.0462,"RA_OF_ASC_NODE":314.2779,"ARG_OF_PERICENTER":7.5352,"MEAN_ANOMALY":352.6472,"EPHEMERIS_TYPE":0,"CLASSIFICATION_TYPE":"U","NORAD_CAT_ID":37320,"ELEMENT_SET_NO":999,"REV_AT_EPOCH":68130,"BSTAR":0.00060506606,"MEAN_MOTION_DOT":4.705e-5,"MEAN_MOTION_DDOT":0},{"OBJECT_NAME":"COSMOS 2251 DEB","OBJECT_ID":"1993-036BKS","EPOCH":"2026-04-26T14:21:36.596736","MEAN_MOTION":14.62312959,"ECCENTRICITY":0.00568229,"INCLINATION":74.0219,"RA_OF_ASC_NODE":76.3433,"ARG_OF_PERICENTER":172.5215,"MEAN_ANOMALY":187.6814,"EPHEMERIS_TYPE":0,"CLASSIFICATION_TYPE":"U","NORAD_CAT_ID":37326,"ELEMENT_SET_NO":999,"REV_AT_EPOCH":87454,"BSTAR":0.00041478202,"MEAN_MOTION_DOT":2.112e-5,"MEAN_MOTION_DDOT":0},{"OBJECT_NAME":"COSMOS 2251 DEB","OBJECT_ID":"1993-036BKW","EPOCH":"2026-04-26T01:11:30.087456","MEAN_MOTION":14.5996306,"ECCENTRICITY":0.00586699,"INCLINATION":74.0188,"RA_OF_ASC_NODE":38.5953,"ARG_OF_PERICENTER":213.0266,"MEAN_ANOMALY":146.7231,"EPHEMERIS_TYPE":0,"CLASSIFICATION_TYPE":"U","NORAD_CAT_ID":37330,"ELEMENT_SET_NO":999,"REV_AT_EPOCH":88328,"BSTAR":0.00021528252,"MEAN_MOTION_DOT":1.026e-5,"MEAN_MOTION_DDOT":0},{"OBJECT_NAME":"COSMOS 2251 DEB","OBJECT_ID":"1993-036BKX","EPOCH":"2026-04-25T11:00:20.245824","MEAN_MOTION":14.35509112,"ECCENTRICITY":0.00558226,"INCLINATION":74.0738,"RA_OF_ASC_NODE":183.2289,"ARG_OF_PERICENTER":166.1722,"MEAN_ANOMALY":194.0976,"EPHEMERIS_TYPE":0,"CLASSIFICATION_TYPE":"U","NORAD_CAT_ID":37331,"ELEMENT_SET_NO":999,"REV_AT_EPOCH":86678,"BSTAR":0.0003676141,"MEAN_MOTION_DOT":1.051e-5,"MEAN_MOTION_DDOT":0},{"OBJECT_NAME":"COSMOS 2251 DEB","OBJECT_ID":"1993-036BLC","EPOCH":"2026-04-26T04:23:52.311840","MEAN_MOTION":14.32817733,"ECCENTRICITY":0.00290486,"INCLINATION":74.0398,"RA_OF_ASC_NODE":85.762,"ARG_OF_PERICENTER":134.2323,"MEAN_ANOMALY":226.1221,"EPHEMERIS_TYPE":0,"CLASSIFICATION_TYPE":"U","NORAD_CAT_ID":37336,"ELEMENT_SET_NO":999,"REV_AT_EPOCH":67045,"BSTAR":6.4351798e-5,"MEAN_MOTION_DOT":1.51e-6,"MEAN_MOTION_DDOT":0},{"OBJECT_NAME":"COSMOS 2251 DEB","OBJECT_ID":"1993-036BLG","EPOCH":"2026-04-26T00:35:26.773152","MEAN_MOTION":14.37082784,"ECCENTRICITY":0.00172886,"INCLINATION":74.027,"RA_OF_ASC_NODE":30.0691,"ARG_OF_PERICENTER":98.5683,"MEAN_ANOMALY":261.743,"EPHEMERIS_TYPE":0,"CLASSIFICATION_TYPE":"U","NORAD_CAT_ID":37340,"ELEMENT_SET_NO":999,"REV_AT_EPOCH":85996,"BSTAR":0.00014492303,"MEAN_MOTION_DOT":4.05e-6,"MEAN_MOTION_DDOT":0},{"OBJECT_NAME":"COSMOS 2251 DEB","OBJECT_ID":"1993-036BLL","EPOCH":"2026-04-27T02:44:29.802048","MEAN_MOTION":14.43802163,"ECCENTRICITY":0.00917371,"INCLINATION":73.9737,"RA_OF_ASC_NODE":250.7082,"ARG_OF_PERICENTER":66.3472,"MEAN_ANOMALY":294.7281,"EPHEMERIS_TYPE":0,"CLASSIFICATION_TYPE":"U","NORAD_CAT_ID":37483,"ELEMENT_SET_NO":999,"REV_AT_EPOCH":67233,"BSTAR":0.00017859899,"MEAN_MOTION_DOT":6.12e-6,"MEAN_MOTION_DDOT":0},{"OBJECT_NAME":"COSMOS 2251 DEB","OBJECT_ID":"1993-036BLP","EPOCH":"2026-04-27T01:01:44.351616","MEAN_MOTION":14.14909749,"ECCENTRICITY":0.02249592,"INCLINATION":73.6895,"RA_OF_ASC_NODE":229.6145,"ARG_OF_PERICENTER":77.6847,"MEAN_ANOMALY":99.2063,"EPHEMERIS_TYPE":0,"CLASSIFICATION_TYPE":"U","NORAD_CAT_ID":37486,"ELEMENT_SET_NO":999,"REV_AT_EPOCH":65282,"BSTAR":0.0017043437,"MEAN_MOTION_DOT":4.18e-5,"MEAN_MOTION_DDOT":0},{"OBJECT_NAME":"COSMOS 2251 DEB","OBJECT_ID":"1993-036BLQ","EPOCH":"2026-04-27T04:16:40.975392","MEAN_MOTION":14.89356283,"ECCENTRICITY":0.00293408,"INCLINATION":73.8961,"RA_OF_ASC_NODE":280.8047,"ARG_OF_PERICENTER":88.4522,"MEAN_ANOMALY":272.0019,"EPHEMERIS_TYPE":0,"CLASSIFICATION_TYPE":"U","NORAD_CAT_ID":37487,"ELEMENT_SET_NO":999,"REV_AT_EPOCH":83256,"BSTAR":0.0036657006,"MEAN_MOTION_DOT":0.00035219,"MEAN_MOTION_DDOT":0}]
